PLEIADES 1A             
1 38012U 11076F   26196.94337625  .00000007  00000+0  11330-4 0  9990
2 38012  98.1974 271.6583 0001669  78.9308   8.1191 14.58546526776188
PLEIADES 1B             
1 39019U 12068A   26196.96078832 -.00000149  00000+0 -22266-4 0  9993
2 39019  98.1946 271.6146 0001574  78.9052 281.2324 14.58533542725046
